{
    "links": {
        "self": "http://www.neowsapp.com/rest/v1/neo/3508118?api_key=iIulBulltgU6a56xZRHN4H3l9WmuAYTsLGpBGhQ2"
    },
    "id": "3508118",
    "neo_reference_id": "3508118",
    "name": "(2010 CN19)",
    "designation": "2010 CN19",
    "nasa_jpl_url": "http://ssd.jpl.nasa.gov/sbdb.cgi?sstr=3508118",
    "absolute_magnitude_h": 26.3,
    "estimated_diameter": {
        "kilometers": {
            "estimated_diameter_min": 0.0146067964,
            "estimated_diameter_max": 0.0326617897
        },
        "meters": {
            "estimated_diameter_min": 14.6067964271,
            "estimated_diameter_max": 32.6617897446
        },
        "miles": {
            "estimated_diameter_min": 0.0090762397,
            "estimated_diameter_max": 0.020295089
        },
        "feet": {
            "estimated_diameter_min": 47.92256199,
            "estimated_diameter_max": 107.1581062656
        }
    },
    "is_potentially_hazardous_asteroid": false,
    "close_approach_data": [
        {
            "close_approach_date": "2009-02-11",
            "close_approach_date_full": "2009-Feb-11 15:34",
            "epoch_date_close_approach": 1234366440000,
            "relative_velocity": {
                "kilometers_per_second": "8.9523656649",
                "kilometers_per_hour": "32228.5163938164",
                "miles_per_hour": "20025.5467559244"
            },
            "miss_distance": {
                "astronomical": "0.1569537281",
                "lunar": "61.0550002309",
                "kilometers": "23479943.412319147",
                "miles": "14589760.3002403486"
            },
            "orbiting_body": "Earth"
        },
        {
            "close_approach_date": "2010-02-11",
            "close_approach_date_full": "2010-Feb-11 18:07",
            "epoch_date_close_approach": 1265911620000,
            "relative_velocity": {
                "kilometers_per_second": "11.5668163678",
                "kilometers_per_hour": "41640.5389241837",
                "miles_per_hour": "25873.8115331962"
            },
            "miss_distance": {
                "astronomical": "0.0157955395",
                "lunar": "6.1444648655",
                "kilometers": "2362979.064700865",
                "miles": "1468287.105427337"
            },
            "orbiting_body": "Earth"
        },
        {
            "close_approach_date": "2011-02-17",
            "close_approach_date_full": "2011-Feb-17 00:59",
            "epoch_date_close_approach": 1297904340000,
            "relative_velocity": {
                "kilometers_per_second": "15.3842226519",
                "kilometers_per_hour": "55383.201546961",
                "miles_per_hour": "34412.9676501103"
            },
            "miss_distance": {
                "astronomical": "0.1584262908",
                "lunar": "61.6278271212",
                "kilometers": "23700235.655680596",
                "miles": "14726643.5529043848"
            },
            "orbiting_body": "Earth"
        },
        {
            "close_approach_date": "2012-02-23",
            "close_approach_date_full": "2012-Feb-23 12:55",
            "epoch_date_close_approach": 1330001700000,
            "relative_velocity": {
                "kilometers_per_second": "19.7131386566",
                "kilometers_per_hour": "70967.2991639015",
                "miles_per_hour": "44096.3198610365"
            },
            "miss_distance": {
                "astronomical": "0.3164407649",
                "lunar": "123.0954575461",
                "kilometers": "47338864.410210763",
                "miles": "29415006.3525360094"
            },
            "orbiting_body": "Earth"
        },
        {
            "close_approach_date": "2013-03-01",
            "close_approach_date_full": "2013-Mar-01 12:16",
            "epoch_date_close_approach": 1362140160000,
            "relative_velocity": {
                "kilometers_per_second": "24.1843659057",
                "kilometers_per_hour": "87063.71726061",
                "miles_per_hour": "54098.0080945163"
            },
            "miss_distance": {
                "astronomical": "0.4721857158",
                "lunar": "183.6802434462",
                "kilometers": "70637977.328105346",
                "miles": "43892403.7938759348"
            },
            "orbiting_body": "Earth"
        }
    ],
    "orbital_data": {
        "orbit_id": "7",
        "orbit_determination_date": "2017-04-06 08:58:24",
        "first_observation_date": "2010-02-15",
        "last_observation_date": "2010-02-15",
        "data_arc_in_days": null,
        "observations_used": 19,
        "orbit_uncertainty": "9",
        "minimum_orbit_intersection": ".015788",
        "jupiter_tisserand_invariant": "5.933",
        "epoch_osculation": "2455242.5",
        "eccentricity": ".283175754761293",
        "semi_major_axis": "1.016901607666993",
        "inclination": "15.74333877482823",
        "ascending_node_longitude": "145.1315886601863",
        "orbital_period": "374.5560598150864",
        "perihelion_distance": ".7289397273979199",
        "perihelion_argument": "254.7618183546268",
        "aphelion_distance": "1.304863487936066",
        "perihelion_time": "2455166.375866548334",
        "mean_anomaly": "73.16578473227509",
        "mean_motion": ".961137833887209",
        "equinox": "J2000",
        "orbit_class": {
            "orbit_class_type": "APO",
            "orbit_class_description": "Near-Earth asteroid orbits which cross the Earth’s orbit similar to that of 1862 Apollo",
            "orbit_class_range": "a (semi-major axis) > 1.0 AU; q (perihelion) < 1.017 AU"
        }
    },
    "is_sentry_object": false
}